{
    "links": {
        "self": "http://www.neowsapp.com/rest/v1/neo/3476131?api_key=iIulBulltgU6a56xZRHN4H3l9WmuAYTsLGpBGhQ2"
    },
    "id": "3476131",
    "neo_reference_id": "3476131",
    "name": "(2009 VR25)",
    "designation": "2009 VR25",
    "nasa_jpl_url": "http://ssd.jpl.nasa.gov/sbdb.cgi?sstr=3476131",
    "absolute_magnitude_h": 23.4,
    "estimated_diameter": {
        "kilometers": {
            "estimated_diameter_min": 0.0555334912,
            "estimated_diameter_max": 0.1241766613
        },
        "meters": {
            "estimated_diameter_min": 55.5334911581,
            "estimated_diameter_max": 124.1766612574
        },
        "miles": {
            "estimated_diameter_min": 0.0345069009,
            "estimated_diameter_max": 0.0771597762
        },
        "feet": {
            "estimated_diameter_min": 182.1964991311,
            "estimated_diameter_max": 407.4037573197
        }
    },
    "is_potentially_hazardous_asteroid": false,
    "close_approach_data": [
        {
            "close_approach_date": "2009-11-28",
            "close_approach_date_full": "2009-Nov-28 16:21",
            "epoch_date_close_approach": 1259425260000,
            "relative_velocity": {
                "kilometers_per_second": "8.9974034948",
                "kilometers_per_hour": "32390.6525814556",
                "miles_per_hour": "20126.2918776272"
            },
            "miss_distance": {
                "astronomical": "0.0836090733",
                "lunar": "32.5239295137",
                "kilometers": "12507739.278353871",
                "miles": "7771948.7975145798"
            },
            "orbiting_body": "Earth"
        }
    ],
    "orbital_data": {
        "orbit_id": "9",
        "orbit_determination_date": "2017-04-06 08:59:14",
        "first_observation_date": "2009-11-11",
        "last_observation_date": "2009-11-20",
        "data_arc_in_days": 9,
        "observations_used": 25,
        "orbit_uncertainty": "9",
        "minimum_orbit_intersection": ".0189743",
        "jupiter_tisserand_invariant": "4.438",
        "epoch_osculation": "2455149.5",
        "eccentricity": ".4522275971513617",
        "semi_major_axis": "1.493170627314385",
        "inclination": "4.012254452473393",
        "ascending_node_longitude": "39.63691024224242",
        "orbital_period": "666.4423454256141",
        "perihelion_distance": ".8179176623870094",
        "perihelion_argument": "79.74946960271326",
        "aphelion_distance": "2.168423592241761",
        "perihelion_time": "2455203.828260666974",
        "mean_anomaly": "330.6528644610359",
        "mean_motion": ".5401817613646549",
        "equinox": "J2000",
        "orbit_class": {
            "orbit_class_type": "APO",
            "orbit_class_description": "Near-Earth asteroid orbits which cross the Earth’s orbit similar to that of 1862 Apollo",
            "orbit_class_range": "a (semi-major axis) > 1.0 AU; q (perihelion) < 1.017 AU"
        }
    },
    "is_sentry_object": false
}